{
  "norad_id": 61629,
  "name": "STARLINK-32403",
  "history": [
    {
      "epoch": "2026-03-28T21:26:37.681152Z",
      "apogee_km": 483.686724943891,
      "perigee_km": 482.7172177472394,
      "latitude_deg": -3.6582768648258628e-06,
      "longitude_deg": -101.93571021054031,
      "height_km": 482.9313936748173,
      "semi_major_axis_km": 6861.3389713455645,
      "eccentricity": 7.065e-05,
      "inclination_deg": 43.0039,
      "raan_deg": 46.0287,
      "arg_perigee_deg": 275.5777,
      "mean_anomaly_deg": 84.4994,
      "mean_motion_rev_day": 15.27528947
    },
    {
      "epoch": "2026-03-29T03:43:13.532736Z",
      "apogee_km": 483.7929614029872,
      "perigee_km": 482.30957249967105,
      "latitude_deg": 1.2663424101618047e-05,
      "longitude_deg": 162.17845378396342,
      "height_km": 482.84962123505994,
      "semi_major_axis_km": 6861.188266951329,
      "eccentricity": 0.0001081,
      "inclination_deg": 43.0023,
      "raan_deg": 44.55,
      "arg_perigee_deg": 268.3256,
      "mean_anomaly_deg": 91.7472,
      "mean_motion_rev_day": 15.27579275
    },
    {
      "epoch": "2026-03-30T04:49:43.510656Z",
      "apogee_km": 483.83983474584966,
      "perigee_km": 482.24392453844484,
      "latitude_deg": -4.41982870869885e-05,
      "longitude_deg": 138.61522345458334,
      "height_km": 482.8686943560802,
      "semi_major_axis_km": 6861.178879642147,
      "eccentricity": 0.0001163,
      "inclination_deg": 43.0029,
      "raan_deg": 38.6429,
      "arg_perigee_deg": 266.4079,
      "mean_anomaly_deg": 93.6639,
      "mean_motion_rev_day": 15.2758241
    },
    {
      "epoch": "2026-03-30T04:49:43.512384Z",
      "apogee_km": 483.8399033576379,
      "perigee_km": 482.24385592665567,
      "latitude_deg": -4.341365779760708e-05,
      "longitude_deg": 138.61521707154822,
      "height_km": 482.86869865418146,
      "semi_major_axis_km": 6861.178879642147,
      "eccentricity": 0.00011631,
      "inclination_deg": 43.0029,
      "raan_deg": 38.6429,
      "arg_perigee_deg": 266.4079,
      "mean_anomaly_deg": 93.6639,
      "mean_motion_rev_day": 15.2758241
    }
  ]
}